ONEWEB-0336             
1 49202U 21083S   26039.21382519  .00000309  00000+0  81189-3 0  9993
2 49202  87.9024 345.8700 0002205  76.0918 284.0456 13.13470975213988
ONEWEB-0337             
1 49203U 21083T   26039.22383970  .00000323  00000+0  84835-3 0  9994
2 49203  87.9019 345.8788 0001993  82.8679 277.2677 13.13468692213983
ONEWEB-0338             
1 49204U 21083U   26039.25499230  .00000765  00000+0  18504-2 0  9994
2 49204  87.9211 300.1936 0001457  88.0188 272.1112 13.20763247219790
ONEWEB-0339             
1 49205U 21083V   26039.23244964  .00000288  00000+0  75328-3 0  9993
2 49205  87.9031 345.8626 0001596  85.3173 274.8139 13.13470437213960
ONEWEB-0340             
1 49206U 21083W   26038.91644212 -.00000249  00000+0 -66366-3 0  9999
2 49206  87.9221   1.1150 0001895  80.2209 279.9137 13.18685283212934
ONEWEB-0341             
1 49207U 21083X   26038.92305600  .00000044  00000+0  79452-4 0  9998
2 49207  87.9220   1.1241 0002249  93.4899 266.6490 13.18686862212951
ONEWEB-0342             
1 49208U 21083Y   26039.26128082  .00000066  00000+0  13001-3 0  9995
2 49208  87.9217 300.1674 0001530  80.6618 279.4688 13.20770221219762
ONEWEB-0343             
1 49209U 21083Z   26038.93128504 -.00000169  00000+0 -46038-3 0  9990
2 49209  87.9221   1.1166 0001976  98.9392 261.1964 13.18686386213008
ONEWEB-0344             
1 49210U 21083AA  26039.22736204  .00000268  00000+0  69773-3 0  9996
2 49210  87.9020 345.8897 0002101  86.4926 273.6443 13.13470861213961
ONEWEB-0345             
1 49211U 21083AB  26039.21890121  .00000317  00000+0  83445-3 0  9992
2 49211  87.9028 345.8566 0002077  89.1349 271.0019 13.13469559213978
ONEWEB-0346             
1 49212U 21083AC  26038.92799862  .00000075  00000+0  15655-3 0  9999
2 49212  87.9209   1.1284 0002403  69.2190 290.9199 13.18685340212943
ONEWEB-0348             
1 49213U 21083AD  26039.25181832  .00000056  00000+0  10543-3 0  9999
2 49213  87.9214 300.1728 0002190  77.4567 282.6811 13.20773427219793
ONEWEB-0350             
1 49214U 21083AE  26039.22819821  .00000326  00000+0  85741-3 0  9995
2 49214  87.9028 345.8533 0002069  83.7619 276.3746 13.13472196214007
ONEWEB-0351             
1 49215U 21083AF  26039.24537979  .00000039  00000+0  64681-4 0  9991
2 49215  87.9216 300.1724 0001333 113.4729 246.6544 13.20773108219757
ONEWEB-0352             
1 49216U 21083AG  26039.20874639  .00000110  00000+0  26632-3 0  9998
2 49216  87.9024 345.8751 0001539  91.3303 268.8003 13.13469884214094
ONEWEB-0354             
1 49217U 21083AH  26039.27075205 -.00000100  00000+0 -27748-3 0  9998
2 49217  87.9217 300.1660 0001983  80.5037 279.6320 13.20771412219794
ONEWEB-0355             
1 49218U 21083AJ  26039.23765817  .00000137  00000+0  34141-3 0  9993
2 49218  87.9020 345.8816 0001815  86.7783 273.3554 13.13471238213975
