[{"OBJECT_NAME":"ONEWEB-0336","OBJECT_ID":"2021-083S","EPOCH":"2026-02-08T05:07:54.496416","MEAN_MOTION":13.13470975,"ECCENTRICITY":0.00022058,"INCLINATION":87.9024,"RA_OF_ASC_NODE":345.87,"ARG_OF_PERICENTER":76.0918,"MEAN_ANOMALY":284.0456,"EPHEMERIS_TYPE":0,"CLASSIFICATION_TYPE":"U","NORAD_CAT_ID":49202,"ELEMENT_SET_NO":999,"REV_AT_EPOCH":21398,"BSTAR":0.00081189387,"MEAN_MOTION_DOT":3.09e-6,"MEAN_MOTION_DDOT":0},{"OBJECT_NAME":"ONEWEB-0337","OBJECT_ID":"2021-083T","EPOCH":"2026-02-08T05:22:19.750080","MEAN_MOTION":13.13468692,"ECCENTRICITY":0.00019935,"INCLINATION":87.9019,"RA_OF_ASC_NODE":345.8788,"ARG_OF_PERICENTER":82.8679,"MEAN_ANOMALY":277.2677,"EPHEMERIS_TYPE":0,"CLASSIFICATION_TYPE":"U","NORAD_CAT_ID":49203,"ELEMENT_SET_NO":999,"REV_AT_EPOCH":21398,"BSTAR":0.00084834749,"MEAN_MOTION_DOT":3.23e-6,"MEAN_MOTION_DDOT":0},{"OBJECT_NAME":"ONEWEB-0338","OBJECT_ID":"2021-083U","EPOCH":"2026-02-08T06:07:11.334720","MEAN_MOTION":13.20763247,"ECCENTRICITY":0.00014578,"INCLINATION":87.9211,"RA_OF_ASC_NODE":300.1936,"ARG_OF_PERICENTER":88.0188,"MEAN_ANOMALY":272.1112,"EPHEMERIS_TYPE":0,"CLASSIFICATION_TYPE":"U","NORAD_CAT_ID":49204,"ELEMENT_SET_NO":999,"REV_AT_EPOCH":21979,"BSTAR":0.0018503624,"MEAN_MOTION_DOT":7.65e-6,"MEAN_MOTION_DDOT":0},{"OBJECT_NAME":"ONEWEB-0339","OBJECT_ID":"2021-083V","EPOCH":"2026-02-08T05:34:43.648896","MEAN_MOTION":13.13470437,"ECCENTRICITY":0.00015964,"INCLINATION":87.9031,"RA_OF_ASC_NODE":345.8626,"ARG_OF_PERICENTER":85.3173,"MEAN_ANOMALY":274.8139,"EPHEMERIS_TYPE":0,"CLASSIFICATION_TYPE":"U","NORAD_CAT_ID":49205,"ELEMENT_SET_NO":999,"REV_AT_EPOCH":21396,"BSTAR":0.00075327702,"MEAN_MOTION_DOT":2.88e-6,"MEAN_MOTION_DDOT":0},{"OBJECT_NAME":"ONEWEB-0340","OBJECT_ID":"2021-083W","EPOCH":"2026-02-07T21:59:40.599168","MEAN_MOTION":13.18685283,"ECCENTRICITY":0.0001895,"INCLINATION":87.9221,"RA_OF_ASC_NODE":1.115,"ARG_OF_PERICENTER":80.2209,"MEAN_ANOMALY":279.9137,"EPHEMERIS_TYPE":0,"CLASSIFICATION_TYPE":"U","NORAD_CAT_ID":49206,"ELEMENT_SET_NO":999,"REV_AT_EPOCH":21293,"BSTAR":-0.00066366,"MEAN_MOTION_DOT":-2.49e-6,"MEAN_MOTION_DDOT":0},{"OBJECT_NAME":"ONEWEB-0341","OBJECT_ID":"2021-083X","EPOCH":"2026-02-07T22:09:12.038400","MEAN_MOTION":13.18686862,"ECCENTRICITY":0.0002249,"INCLINATION":87.922,"RA_OF_ASC_NODE":1.1241,"ARG_OF_PERICENTER":93.4899,"MEAN_ANOMALY":266.649,"EPHEMERIS_TYPE":0,"CLASSIFICATION_TYPE":"U","NORAD_CAT_ID":49207,"ELEMENT_SET_NO":999,"REV_AT_EPOCH":21295,"BSTAR":7.9452e-5,"MEAN_MOTION_DOT":4.4e-7,"MEAN_MOTION_DDOT":0},{"OBJECT_NAME":"ONEWEB-0342","OBJECT_ID":"2021-083Y","EPOCH":"2026-02-08T06:16:14.662848","MEAN_MOTION":13.20770221,"ECCENTRICITY":0.00015309,"INCLINATION":87.9217,"RA_OF_ASC_NODE":300.1674,"ARG_OF_PERICENTER":80.6618,"MEAN_ANOMALY":279.4688,"EPHEMERIS_TYPE":0,"CLASSIFICATION_TYPE":"U","NORAD_CAT_ID":49208,"ELEMENT_SET_NO":999,"REV_AT_EPOCH":21976,"BSTAR":0.0001300133,"MEAN_MOTION_DOT":6.6e-7,"MEAN_MOTION_DDOT":0},{"OBJECT_NAME":"ONEWEB-0343","OBJECT_ID":"2021-083Z","EPOCH":"2026-02-07T22:21:03.027456","MEAN_MOTION":13.18686386,"ECCENTRICITY":0.0001976,"INCLINATION":87.9221,"RA_OF_ASC_NODE":1.1166,"ARG_OF_PERICENTER":98.9392,"MEAN_ANOMALY":261.1964,"EPHEMERIS_TYPE":0,"CLASSIFICATION_TYPE":"U","NORAD_CAT_ID":49209,"ELEMENT_SET_NO":999,"REV_AT_EPOCH":21300,"BSTAR":-0.00046038,"MEAN_MOTION_DOT":-1.69e-6,"MEAN_MOTION_DDOT":0},{"OBJECT_NAME":"ONEWEB-0344","OBJECT_ID":"2021-083AA","EPOCH":"2026-02-08T05:27:24.080256","MEAN_MOTION":13.13470861,"ECCENTRICITY":0.00021011,"INCLINATION":87.902,"RA_OF_ASC_NODE":345.8897,"ARG_OF_PERICENTER":86.4926,"MEAN_ANOMALY":273.6443,"EPHEMERIS_TYPE":0,"CLASSIFICATION_TYPE":"U","NORAD_CAT_ID":49210,"ELEMENT_SET_NO":999,"REV_AT_EPOCH":21396,"BSTAR":0.00069773189,"MEAN_MOTION_DOT":2.68e-6,"MEAN_MOTION_DDOT":0},{"OBJECT_NAME":"ONEWEB-0345","OBJECT_ID":"2021-083AB","EPOCH":"2026-02-08T05:15:13.064544","MEAN_MOTION":13.13469559,"ECCENTRICITY":0.00020776,"INCLINATION":87.9028,"RA_OF_ASC_NODE":345.8566,"ARG_OF_PERICENTER":89.1349,"MEAN_ANOMALY":271.0019,"EPHEMERIS_TYPE":0,"CLASSIFICATION_TYPE":"U","NORAD_CAT_ID":49211,"ELEMENT_SET_NO":999,"REV_AT_EPOCH":21397,"BSTAR":0.00083444672,"MEAN_MOTION_DOT":3.17e-6,"MEAN_MOTION_DDOT":0},{"OBJECT_NAME":"ONEWEB-0346","OBJECT_ID":"2021-083AC","EPOCH":"2026-02-07T22:16:19.080768","MEAN_MOTION":13.1868534,"ECCENTRICITY":0.0002403,"INCLINATION":87.9209,"RA_OF_ASC_NODE":1.1284,"ARG_OF_PERICENTER":69.219,"MEAN_ANOMALY":290.9199,"EPHEMERIS_TYPE":0,"CLASSIFICATION_TYPE":"U","NORAD_CAT_ID":49212,"ELEMENT_SET_NO":999,"REV_AT_EPOCH":21294,"BSTAR":0.00015655,"MEAN_MOTION_DOT":7.5e-7,"MEAN_MOTION_DDOT":0},{"OBJECT_NAME":"ONEWEB-0348","OBJECT_ID":"2021-083AD","EPOCH":"2026-02-08T06:02:37.102848","MEAN_MOTION":13.20773427,"ECCENTRICITY":0.00021904,"INCLINATION":87.9214,"RA_OF_ASC_NODE":300.1728,"ARG_OF_PERICENTER":77.4567,"MEAN_ANOMALY":282.6811,"EPHEMERIS_TYPE":0,"CLASSIFICATION_TYPE":"U","NORAD_CAT_ID":49213,"ELEMENT_SET_NO":999,"REV_AT_EPOCH":21979,"BSTAR":0.00010543379,"MEAN_MOTION_DOT":5.6e-7,"MEAN_MOTION_DDOT":0},{"OBJECT_NAME":"ONEWEB-0350","OBJECT_ID":"2021-083AE","EPOCH":"2026-02-08T05:28:36.325344","MEAN_MOTION":13.13472196,"ECCENTRICITY":0.00020693,"INCLINATION":87.9028,"RA_OF_ASC_NODE":345.8533,"ARG_OF_PERICENTER":83.7619,"MEAN_ANOMALY":276.3746,"EPHEMERIS_TYPE":0,"CLASSIFICATION_TYPE":"U","NORAD_CAT_ID":49214,"ELEMENT_SET_NO":999,"REV_AT_EPOCH":21400,"BSTAR":0.00085741279,"MEAN_MOTION_DOT":3.26e-6,"MEAN_MOTION_DDOT":0},{"OBJECT_NAME":"ONEWEB-0351","OBJECT_ID":"2021-083AF","EPOCH":"2026-02-08T05:53:20.813856","MEAN_MOTION":13.20773108,"ECCENTRICITY":0.00013331,"INCLINATION":87.9216,"RA_OF_ASC_NODE":300.1724,"ARG_OF_PERICENTER":113.4729,"MEAN_ANOMALY":246.6544,"EPHEMERIS_TYPE":0,"CLASSIFICATION_TYPE":"U","NORAD_CAT_ID":49215,"ELEMENT_SET_NO":999,"REV_AT_EPOCH":21975,"BSTAR":6.468062e-5,"MEAN_MOTION_DOT":3.9e-7,"MEAN_MOTION_DDOT":0},{"OBJECT_NAME":"ONEWEB-0352","OBJECT_ID":"2021-083AG","EPOCH":"2026-02-08T05:00:35.688096","MEAN_MOTION":13.13469884,"ECCENTRICITY":0.00015397,"INCLINATION":87.9024,"RA_OF_ASC_NODE":345.8751,"ARG_OF_PERICENTER":91.3303,"MEAN_ANOMALY":268.8003,"EPHEMERIS_TYPE":0,"CLASSIFICATION_TYPE":"U","NORAD_CAT_ID":49216,"ELEMENT_SET_NO":999,"REV_AT_EPOCH":21409,"BSTAR":0.00026632181,"MEAN_MOTION_DOT":1.1e-6,"MEAN_MOTION_DDOT":0},{"OBJECT_NAME":"ONEWEB-0354","OBJECT_ID":"2021-083AH","EPOCH":"2026-02-08T06:29:52.977120","MEAN_MOTION":13.20771412,"ECCENTRICITY":0.00019836,"INCLINATION":87.9217,"RA_OF_ASC_NODE":300.166,"ARG_OF_PERICENTER":80.5037,"MEAN_ANOMALY":279.632,"EPHEMERIS_TYPE":0,"CLASSIFICATION_TYPE":"U","NORAD_CAT_ID":49217,"ELEMENT_SET_NO":999,"REV_AT_EPOCH":21979,"BSTAR":-0.00027747552,"MEAN_MOTION_DOT":-1.0e-6,"MEAN_MOTION_DDOT":0},{"OBJECT_NAME":"ONEWEB-0355","OBJECT_ID":"2021-083AJ","EPOCH":"2026-02-08T05:42:13.665888","MEAN_MOTION":13.13471238,"ECCENTRICITY":0.00018151,"INCLINATION":87.902,"RA_OF_ASC_NODE":345.8816,"ARG_OF_PERICENTER":86.7783,"MEAN_ANOMALY":273.3554,"EPHEMERIS_TYPE":0,"CLASSIFICATION_TYPE":"U","NORAD_CAT_ID":49218,"ELEMENT_SET_NO":999,"REV_AT_EPOCH":21397,"BSTAR":0.00034140963,"MEAN_MOTION_DOT":1.37e-6,"MEAN_MOTION_DDOT":0}]
